{
  "type": "FeatureCollection",
  "features": [
    {
      "type": "Feature",
      "properties": {
        "norad_id": 33733,
        "name": "FENGYUN 1C DEB",
        "group": "fengyun-1c-debris",
        "lat": 33.13052017023568,
        "lon": -96.1193998278621,
        "alt_km": 728.804643361168,
        "timestamp": "2025-12-18T07:01:54.876670+00:00",
        "meta_object_name": "FENGYUN 1C DEB",
        "meta_object_id": "1999-025DHW",
        "meta_epoch": "2025-12-14T05:17:42.025920",
        "meta_mean_motion": 14.31053637,
        "meta_eccentricity": 0.00804283,
        "meta_inclination": 99.0978,
        "meta_ra_of_asc_node": 73.616,
        "meta_arg_of_pericenter": 166.2685,
        "meta_mean_anomaly": 251.3146,
        "meta_ephemeris_type": 0,
        "meta_classification_type": "U",
        "meta_norad_cat_id": 33733,
        "meta_element_set_no": 999,
        "meta_rev_at_epoch": 90469,
        "meta_bstar": 0.0039221093,
        "meta_mean_motion_dot": 0.00010671,
        "meta_mean_motion_ddot": 0,
        "tle_line1": "1 33733U 99025DHW 25348.22062530  .00010671  00000+0  39221-2 0  9999",
        "tle_line2": "2 33733  99.0978  73.6160 0080428 166.2685 251.3146 14.31053637904695"
      },
      "geometry": {
        "type": "Point",
        "coordinates": [
          -96.1193998278621,
          33.13052017023568
        ]
      }
    },
    {
      "type": "Feature",
      "properties": {
        "norad_id": 33737,
        "name": "FENGYUN 1C DEB",
        "group": "fengyun-1c-debris",
        "lat": 40.21116746700984,
        "lon": 12.865044077477876,
        "alt_km": 937.082576169264,
        "timestamp": "2025-12-18T07:01:54.876680+00:00",
        "meta_object_name": "FENGYUN 1C DEB",
        "meta_object_id": "1999-025DJA",
        "meta_epoch": "2025-12-17T11:51:24.147936",
        "meta_mean_motion": 14.03017688,
        "meta_eccentricity": 0.01283842,
        "meta_inclination": 98.3373,
        "meta_ra_of_asc_node": 185.0115,
        "meta_arg_of_pericenter": 269.6486,
        "meta_mean_anomaly": 157.4868,
        "meta_ephemeris_type": 0,
        "meta_classification_type": "U",
        "meta_norad_cat_id": 33737,
        "meta_element_set_no": 999,
        "meta_rev_at_epoch": 88807,
        "meta_bstar": 0.0011021959,
        "meta_mean_motion_dot": 1.801e-05,
        "meta_mean_motion_ddot": 0,
        "tle_line1": "1 33737U 99025DJA 25351.49402949  .00001801  00000+0  11022-2 0  9992",
        "tle_line2": "2 33737  98.3373 185.0115 0128384 269.6486 157.4868 14.03017688888074"
      },
      "geometry": {
        "type": "Point",
        "coordinates": [
          12.865044077477876,
          40.21116746700984
        ]
      }
    },
    {
      "type": "Feature",
      "properties": {
        "norad_id": 33738,
        "name": "FENGYUN 1C DEB",
        "group": "fengyun-1c-debris",
        "lat": -9.464806199191065,
        "lon": 53.86616838636035,
        "alt_km": 769.9171786043134,
        "timestamp": "2025-12-18T07:01:54.876690+00:00",
        "meta_object_name": "FENGYUN 1C DEB",
        "meta_object_id": "1999-025DJB",
        "meta_epoch": "2025-12-16T10:32:33.645120",
        "meta_mean_motion": 13.99537717,
        "meta_eccentricity": 0.01845971,
        "meta_inclination": 99.1516,
        "meta_ra_of_asc_node": 50.4728,
        "meta_arg_of_pericenter": 11.2707,
        "meta_mean_anomaly": 5.2548,
        "meta_ephemeris_type": 0,
        "meta_classification_type": "U",
        "meta_norad_cat_id": 33738,
        "meta_element_set_no": 999,
        "meta_rev_at_epoch": 89288,
        "meta_bstar": 0.00049038392,
        "meta_mean_motion_dot": 7.83e-06,
        "meta_mean_motion_ddot": 0,
        "tle_line1": "1 33738U 99025DJB 25350.43927830  .00000783  00000+0  49038-3 0  9994",
        "tle_line2": "2 33738  99.1516  50.4728 0184597  11.2707   5.2548 13.99537717892886"
      },
      "geometry": {
        "type": "Point",
        "coordinates": [
          53.86616838636035,
          -9.464806199191065
        ]
      }
    },
    {
      "type": "Feature",
      "properties": {
        "norad_id": 33740,
        "name": "FENGYUN 1C DEB",
        "group": "fengyun-1c-debris",
        "lat": -73.2247799630317,
        "lon": 35.50911156119055,
        "alt_km": 860.2222845881824,
        "timestamp": "2025-12-18T07:01:54.876701+00:00",
        "meta_object_name": "FENGYUN 1C DEB",
        "meta_object_id": "1999-025DJD",
        "meta_epoch": "2025-12-16T07:46:54.188256",
        "meta_mean_motion": 14.12324593,
        "meta_eccentricity": 0.00021471,
        "meta_inclination": 98.687,
        "meta_ra_of_asc_node": 3.1252,
        "meta_arg_of_pericenter": 122.5955,
        "meta_mean_anomaly": 237.5425,
        "meta_ephemeris_type": 0,
        "meta_classification_type": "U",
        "meta_norad_cat_id": 33740,
        "meta_element_set_no": 999,
        "meta_rev_at_epoch": 90197,
        "meta_bstar": 0.00016107797,
        "meta_mean_motion_dot": 2.54e-06,
        "meta_mean_motion_ddot": 0,
        "tle_line1": "1 33740U 99025DJD 25350.32423829  .00000254  00000+0  16108-3 0  9999",
        "tle_line2": "2 33740  98.6870   3.1252 0002147 122.5955 237.5425 14.12324593901971"
      },
      "geometry": {
        "type": "Point",
        "coordinates": [
          35.50911156119055,
          -73.2247799630317
        ]
      }
    },
    {
      "type": "Feature",
      "properties": {
        "norad_id": 33741,
        "name": "FENGYUN 1C DEB",
        "group": "fengyun-1c-debris",
        "lat": -80.89820460686367,
        "lon": -24.183948580371247,
        "alt_km": 953.9649838350306,
        "timestamp": "2025-12-18T07:01:54.876711+00:00",
        "meta_object_name": "FENGYUN 1C DEB",
        "meta_object_id": "1999-025DJE",
        "meta_epoch": "2025-12-17T00:47:21.421248",
        "meta_mean_motion": 14.09848118,
        "meta_eccentricity": 0.01281815,
        "meta_inclination": 98.5661,
        "meta_ra_of_asc_node": 264.4259,
        "meta_arg_of_pericenter": 76.1645,
        "meta_mean_anomaly": 285.3751,
        "meta_ephemeris_type": 0,
        "meta_classification_type": "U",
        "meta_norad_cat_id": 33741,
        "meta_element_set_no": 999,
        "meta_rev_at_epoch": 56923,
        "meta_bstar": 0.0017034316,
        "meta_mean_motion_dot": 3.195e-05,
        "meta_mean_motion_ddot": 0,
        "tle_line1": "1 33741U 99025DJE 25351.03288682  .00003195  00000+0  17034-2 0  9990",
        "tle_line2": "2 33741  98.5661 264.4259 0128181  76.1645 285.3751 14.09848118569237"
      },
      "geometry": {
        "type": "Point",
        "coordinates": [
          -24.183948580371247,
          -80.89820460686367
        ]
      }
    },
    {
      "type": "Feature",
      "properties": {
        "norad_id": 33745,
        "name": "FENGYUN 1C DEB",
        "group": "fengyun-1c-debris",
        "lat": 16.5324032189667,
        "lon": -147.62596717214532,
        "alt_km": 815.7187402000263,
        "timestamp": "2025-12-18T07:01:54.876721+00:00",
        "meta_object_name": "FENGYUN 1C DEB",
        "meta_object_id": "1999-025DJJ",
        "meta_epoch": "2025-12-17T13:22:43.604832",
        "meta_mean_motion": 14.22346964,
        "meta_eccentricity": 0.00542183,
        "meta_inclination": 99.1148,
        "meta_ra_of_asc_node": 28.8825,
        "meta_arg_of_pericenter": 252.2828,
        "meta_mean_anomaly": 107.2426,
        "meta_ephemeris_type": 0,
        "meta_classification_type": "U",
        "meta_norad_cat_id": 33745,
        "meta_element_set_no": 999,
        "meta_rev_at_epoch": 66070,
        "meta_bstar": 0.0010724416,
        "meta_mean_motion_dot": 2.374e-05,
        "meta_mean_motion_ddot": 0,
        "tle_line1": "1 33745U 99025DJJ 25351.55744913  .00002374  00000+0  10724-2 0  9992",
        "tle_line2": "2 33745  99.1148  28.8825 0054218 252.2828 107.2426 14.22346964660700"
      },
      "geometry": {
        "type": "Point",
        "coordinates": [
          -147.62596717214532,
          16.5324032189667
        ]
      }
    },
    {
      "type": "Feature",
      "properties": {
        "norad_id": 33747,
        "name": "FENGYUN 1C DEB",
        "group": "fengyun-1c-debris",
        "lat": -17.245324946263054,
        "lon": 89.95317530275673,
        "alt_km": 889.157071126875,
        "timestamp": "2025-12-18T07:01:54.876731+00:00",
        "meta_object_name": "FENGYUN 1C DEB",
        "meta_object_id": "1999-025DJL",
        "meta_epoch": "2025-12-07T00:03:01.560960",
        "meta_mean_motion": 14.17338054,
        "meta_eccentricity": 0.00899301,
        "meta_inclination": 99.098,
        "meta_ra_of_asc_node": 75.547,
        "meta_arg_of_pericenter": 232.9564,
        "meta_mean_anomaly": 126.336,
        "meta_ephemeris_type": 0,
        "meta_classification_type": "U",
        "meta_norad_cat_id": 33747,
        "meta_element_set_no": 999,
        "meta_rev_at_epoch": 90051,
        "meta_bstar": 0.0039970984,
        "meta_mean_motion_dot": 8.373e-05,
        "meta_mean_motion_ddot": 0,
        "tle_line1": "1 33747U 99025DJL 25341.00210140  .00008373  00000+0  39971-2 0  9993",
        "tle_line2": "2 33747  99.0980  75.5470 0089930 232.9564 126.3360 14.17338054900511"
      },
      "geometry": {
        "type": "Point",
        "coordinates": [
          89.95317530275673,
          -17.245324946263054
        ]
      }
    }
  ]
}